{"type": "FeatureCollection", "features": [ {"type": "Feature", "properties": {"norad_id": 30035, "name": "FENGYUN 1C DEB", "group": "fengyun-1c-debris", "lat": 32.16439403391327, "lon": -95.59928212362753, "alt_km": 684.5120196293929, "timestamp": "2025-12-20T20:38:44.715992+00:00", "meta": {"OBJECT_NAME": "FENGYUN 1C DEB", "OBJECT_ID": "1999-025NL", "EPOCH": "2025-12-20T12:59:18.008160", "MEAN_MOTION": 14.36978378, "ECCENTRICITY": 0.01153465, "INCLINATION": 99.2714, "RA_OF_ASC_NODE": 269.9533, "ARG_OF_PERICENTER": 39.3666, "MEAN_ANOMALY": 143.8988, "EPHEMERIS_TYPE": 0, "CLASSIFICATION_TYPE": "U", "NORAD_CAT_ID": 30035, "ELEMENT_SET_NO": 999, "REV_AT_EPOCH": 99235, "BSTAR": 5.8111515e-05, "MEAN_MOTION_DOT": 1.33e-06, "MEAN_MOTION_DDOT": 0}, "tle": {"line1": "1 30035U 99025NL  25354.54118065  .00000133  00000+0  58112-4 0  9992", "line2": "2 30035  99.2714 269.9533 0115346  39.3666 143.8988 14.36978378992350"}}, "geometry": {"type": "Point", "coordinates": [-95.59928212362753, 32.16439403391327]}}, {"type": "Feature", "properties": {"norad_id": 30036, "name": "FENGYUN 1C DEB", "group": "fengyun-1c-debris", "lat": 31.12013559540124, "lon": 16.720066113884243, "alt_km": 854.5648276264974, "timestamp": "2025-12-20T20:38:44.716002+00:00", "meta": {"OBJECT_NAME": "FENGYUN 1C DEB", "OBJECT_ID": "1999-025NM", "EPOCH": "2025-12-20T14:26:19.452192", "MEAN_MOTION": 14.46205496, "ECCENTRICITY": 0.01903608, "INCLINATION": 98.252, "RA_OF_ASC_NODE": 21.4945, "ARG_OF_PERICENTER": 183.6521, "MEAN_ANOMALY": 303.282, "EPHEMERIS_TYPE": 0, "CLASSIFICATION_TYPE": "U", "NORAD_CAT_ID": 30036, "ELEMENT_SET_NO": 999, "REV_AT_EPOCH": 99290, "BSTAR": 0.0002569777, "MEAN_MOTION_DOT": 1.1e-05, "MEAN_MOTION_DDOT": 0}, "tle": {"line1": "1 30036U 99025NM  25354.60161403  .00001100  00000+0  25698-3 0  9991", "line2": "2 30036  98.2520  21.4945 0190360 183.6521 303.2820 14.46205496992908"}}, "geometry": {"type": "Point", "coordinates": [16.720066113884243, 31.12013559540124]}}, {"type": "Feature", "properties": {"norad_id": 30037, "name": "FENGYUN 1C DEB", "group": "fengyun-1c-debris", "lat": 73.70542309961562, "lon": -59.96450926533777, "alt_km": 681.6742702879637, "timestamp": "2025-12-20T20:38:44.716012+00:00", "meta": {"OBJECT_NAME": "FENGYUN 1C DEB", "OBJECT_ID": "1999-025NN", "EPOCH": "2025-12-20T10:58:53.501088", "MEAN_MOTION": 14.3412844, "ECCENTRICITY": 0.01740982, "INCLINATION": 98.3842, "RA_OF_ASC_NODE": 329.9444, "ARG_OF_PERICENTER": 32.2288, "MEAN_ANOMALY": 124.6182, "EPHEMERIS_TYPE": 0, "CLASSIFICATION_TYPE": "U", "NORAD_CAT_ID": 30037, "ELEMENT_SET_NO": 999, "REV_AT_EPOCH": 98898, "BSTAR": 0.00016401366, "MEAN_MOTION_DOT": 4.97e-06, "MEAN_MOTION_DDOT": 0}, "tle": {"line1": "1 30037U 99025NN  25354.45756367  .00000497  00000+0  16401-3 0  9994", "line2": "2 30037  98.3842 329.9444 0174098  32.2288 124.6182 14.34128440988985"}}, "geometry": {"type": "Point", "coordinates": [-59.96450926533777, 73.70542309961562]}}, {"type": "Feature", "properties": {"norad_id": 30038, "name": "FENGYUN 1C DEB", "group": "fengyun-1c-debris", "lat": -74.46528323286684, "lon": 130.3280461420458, "alt_km": 952.2345960398679, "timestamp": "2025-12-20T20:38:44.716022+00:00", "meta": {"OBJECT_NAME": "FENGYUN 1C DEB", "OBJECT_ID": "1999-025NP", "EPOCH": "2025-12-19T21:52:41.166912", "MEAN_MOTION": 14.39308913, "ECCENTRICITY": 0.0258012, "INCLINATION": 98.3688, "RA_OF_ASC_NODE": 341.3768, "ARG_OF_PERICENTER": 81.3391, "MEAN_ANOMALY": 302.8095, "EPHEMERIS_TYPE": 0, "CLASSIFICATION_TYPE": "U", "NORAD_CAT_ID": 30038, "ELEMENT_SET_NO": 999, "REV_AT_EPOCH": 98994, "BSTAR": 0.00017409, "MEAN_MOTION_DOT": 7.48e-06, "MEAN_MOTION_DDOT": 0}, "tle": {"line1": "1 30038U 99025NP  25353.91158758  .00000748  00000+0  17409-3 0  9993", "line2": "2 30038  98.3688 341.3768 0258012  81.3391 302.8095 14.39308913989940"}}, "geometry": {"type": "Point", "coordinates": [130.3280461420458, -74.46528323286684]}}, {"type": "Feature", "properties": {"norad_id": 30040, "name": "FENGYUN 1C DEB", "group": "fengyun-1c-debris", "lat": -38.45548265282785, "lon": 17.493703553110965, "alt_km": 754.869074510163, "timestamp": "2025-12-20T20:38:44.716032+00:00", "meta": {"OBJECT_NAME": "FENGYUN 1C DEB", "OBJECT_ID": "1999-025NR", "EPOCH": "2025-12-20T14:41:47.852160", "MEAN_MOTION": 14.37187191, "ECCENTRICITY": 0.00322913, "INCLINATION": 98.2327, "RA_OF_ASC_NODE": 10.6541, "ARG_OF_PERICENTER": 288.7824, "MEAN_ANOMALY": 190.4247, "EPHEMERIS_TYPE": 0, "CLASSIFICATION_TYPE": "U", "NORAD_CAT_ID": 30040, "ELEMENT_SET_NO": 999, "REV_AT_EPOCH": 98041, "BSTAR": 0.0010646944, "MEAN_MOTION_DOT": 3.146e-05, "MEAN_MOTION_DDOT": 0}, "tle": {"line1": "1 30040U 99025NR  25354.61235940  .00003146  00000+0  10647-2 0  9994", "line2": "2 30040  98.2327  10.6541 0032291 288.7824 190.4247 14.37187191980414"}}, "geometry": {"type": "Point", "coordinates": [17.493703553110965, -38.45548265282785]}}, {"type": "Feature", "properties": {"norad_id": 30041, "name": "FENGYUN 1C DEB", "group": "fengyun-1c-debris", "lat": -71.9989826026404, "lon": 132.72196752884145, "alt_km": 855.9339685533623, "timestamp": "2025-12-20T20:38:44.716042+00:00", "meta": {"OBJECT_NAME": "FENGYUN 1C DEB", "OBJECT_ID": "1999-025NS", "EPOCH": "2025-12-20T05:59:54.238848", "MEAN_MOTION": 14.1319783, "ECCENTRICITY": 0.0035093, "INCLINATION": 99.4671, "RA_OF_ASC_NODE": 101.1793, "ARG_OF_PERICENTER": 196.3632, "MEAN_ANOMALY": 225.4019, "EPHEMERIS_TYPE": 0, "CLASSIFICATION_TYPE": "U", "NORAD_CAT_ID": 30041, "ELEMENT_SET_NO": 999, "REV_AT_EPOCH": 97393, "BSTAR": 0.00035324, "MEAN_MOTION_DOT": 6.16e-06, "MEAN_MOTION_DDOT": 0}, "tle": {"line1": "1 30041U 99025NS  25354.24993332  .00000616  00000+0  35324-3 0  9999", "line2": "2 30041  99.4671 101.1793 0035093 196.3632 225.4019 14.13197830973939"}}, "geometry": {"type": "Point", "coordinates": [132.72196752884145, -71.9989826026404]}}, {"type": "Feature", "properties": {"norad_id": 30043, "name": "FENGYUN 1C DEB", "group": "fengyun-1c-debris", "lat": -61.94478662436452, "lon": -103.87713346393178, "alt_km": 963.4864152397286, "timestamp": "2025-12-20T20:38:44.716053+00:00", "meta": {"OBJECT_NAME": "FENGYUN 1C DEB", "OBJECT_ID": "1999-025NU", "EPOCH": "2025-12-19T19:55:00.501888", "MEAN_MOTION": 14.23607082, "ECCENTRICITY": 0.0283562, "INCLINATION": 98.6278, "RA_OF_ASC_NODE": 91.6629, "ARG_OF_PERICENTER": 110.4105, "MEAN_ANOMALY": 252.7768, "EPHEMERIS_TYPE": 0, "CLASSIFICATION_TYPE": "U", "NORAD_CAT_ID": 30043, "ELEMENT_SET_NO": 999, "REV_AT_EPOCH": 97446, "BSTAR": 0.00049868402, "MEAN_MOTION_DOT": 1.675e-05, "MEAN_MOTION_DDOT": 0}, "tle": {"line1": "1 30043U 99025NU  25353.82986692  .00001675  00000+0  49868-3 0  9999", "line2": "2 30043  98.6278  91.6629 0283562 110.4105 252.7768 14.23607082974463"}}, "geometry": {"type": "Point", "coordinates": [-103.87713346393178, -61.94478662436452]}}, {"type": "Feature", "properties": {"norad_id": 30044, "name": "FENGYUN 1C DEB", "group": "fengyun-1c-debris", "lat": -16.51506793455373, "lon": 92.50390650714473, "alt_km": 694.8418656366912, "timestamp": "2025-12-20T20:38:44.716063+00:00", "meta": {"OBJECT_NAME": "FENGYUN 1C DEB", "OBJECT_ID": "1999-025NV", "EPOCH": "2025-12-20T06:30:21.647232", "MEAN_MOTION": 14.50743202, "ECCENTRICITY": 0.00799318, "INCLINATION": 98.2124, "RA_OF_ASC_NODE": 274.3831, "ARG_OF_PERICENTER": 143.8156, "MEAN_ANOMALY": 216.8484, "EPHEMERIS_TYPE": 0, "CLASSIFICATION_TYPE": "U", "NORAD_CAT_ID": 30044, "ELEMENT_SET_NO": 999, "REV_AT_EPOCH": 98148, "BSTAR": 0.00099237092, "MEAN_MOTION_DOT": 4.023e-05, "MEAN_MOTION_DDOT": 0}, "tle": {"line1": "1 30044U 99025NV  25354.27108388  .00004023  00000+0  99237-3 0  9993", "line2": "2 30044  98.2124 274.3831 0079931 143.8156 216.8484 14.50743202981485"}}, "geometry": {"type": "Point", "coordinates": [92.50390650714473, -16.51506793455373]}}, {"type": "Feature", "properties": {"norad_id": 30045, "name": "FENGYUN 1C DEB", "group": "fengyun-1c-debris", "lat": -50.422513932656, "lon": -160.52870199665344, "alt_km": 878.9691540813956, "timestamp": "2025-12-20T20:38:44.716073+00:00", "meta": {"OBJECT_NAME": "FENGYUN 1C DEB", "OBJECT_ID": "1999-025NW", "EPOCH": "2025-12-20T01:16:05.660256", "MEAN_MOTION": 14.21662258, "ECCENTRICITY": 0.00942211, "INCLINATION": 99.1782, "RA_OF_ASC_NODE": 29.9112, "ARG_OF_PERICENTER": 92.6355, "MEAN_ANOMALY": 327.9819, "EPHEMERIS_TYPE": 0, "CLASSIFICATION_TYPE": "U", "NORAD_CAT_ID": 30045, "ELEMENT_SET_NO": 999, "REV_AT_EPOCH": 96792, "BSTAR": 0.0013996213, "MEAN_MOTION_DOT": 3.169e-05, "MEAN_MOTION_DDOT": 0}, "tle": {"line1": "1 30045U 99025NW  25354.05284329  .00003169  00000+0  13996-2 0  9997", "line2": "2 30045  99.1782  29.9112 0094221  92.6355 327.9819 14.21662258967921"}}, "geometry": {"type": "Point", "coordinates": [-160.52870199665344, -50.422513932656]}}, {"type": "Feature", "properties": {"norad_id": 30047, "name": "FENGYUN 1C DEB", "group": "fengyun-1c-debris", "lat": 79.62085143546172, "lon": 45.26867710849497, "alt_km": 986.5341229275027, "timestamp": "2025-12-20T20:38:44.716083+00:00", "meta": {"OBJECT_NAME": "FENGYUN 1C DEB", "OBJECT_ID": "1999-025NY", "EPOCH": "2025-12-20T10:07:50.298816", "MEAN_MOTION": 13.9436758, "ECCENTRICITY": 0.01256901, "INCLINATION": 99.9193, "RA_OF_ASC_NODE": 151.9807, "ARG_OF_PERICENTER": 302.2967, "MEAN_ANOMALY": 111.9379, "EPHEMERIS_TYPE": 0, "CLASSIFICATION_TYPE": "U", "NORAD_CAT_ID": 30047, "ELEMENT_SET_NO": 999, "REV_AT_EPOCH": 96023, "BSTAR": 0.00042519248, "MEAN_MOTION_DOT": 5.53e-06, "MEAN_MOTION_DDOT": 0}, "tle": {"line1": "1 30047U 99025NY  25354.42210994  .00000553  00000+0  42519-3 0  9995", "line2": "2 30047  99.9193 151.9807 0125690 302.2967 111.9379 13.94367580960236"}}, "geometry": {"type": "Point", "coordinates": [45.26867710849497, 79.62085143546172]}}]}